OBJECT_NAME,OBJECT_ID,EPOCH,MEAN_MOTION,ECCENTRICITY,INCLINATION,RA_OF_ASC_NODE,ARG_OF_PERICENTER,MEAN_ANOMALY,EPHEMERIS_TYPE,CLASSIFICATION_TYPE,NORAD_CAT_ID,ELEMENT_SET_NO,REV_AT_EPOCH,BSTAR,MEAN_MOTION_DOT,MEAN_MOTION_DDOT
STARLINK-37508,2026-117V,2026-06-14T20:53:31.613856,15.80943549,.0001708,53.1584,254.8060,45.2171,314.8990,0,U,69257,999,261,.11682E-2,.237078E-2,0
STARLINK-37276,2026-117W,2026-06-14T20:00:04.998816,15.80900947,.0001221,53.1582,254.6740,57.9238,244.3232,0,U,69258,999,378,-.26366E-3,-.52489E-3,0
STARLINK-37518,2026-117X,2026-06-14T20:00:04.998816,15.80884694,.0001241,53.1582,254.6892,106.0186,189.2295,0,U,69259,999,380,-.5144E-4,-.10845E-3,0
STARLINK-37478,2026-117Y,2026-06-14T20:00:04.998816,15.80903201,.0000928,53.1585,254.6922,85.8143,208.1502,0,U,69260,999,380,-.25561E-3,-.50921E-3,0
STARLINK-37506,2026-117Z,2026-06-14T20:00:04.998816,15.80909944,.0000968,53.1580,254.6859,68.9182,227.8306,0,U,69261,999,380,-.34267E-3,-.67915E-3,0
STARLINK-37503,2026-117AA,2026-06-14T20:00:04.998816,15.80885823,.0001112,53.1584,254.6822,110.7031,187.5119,0,U,69262,999,380,-.87581E-4,-.17959E-3,0
STARLINK-37502,2026-117AB,2026-06-14T20:00:04.998816,15.80887436,.000106,53.1583,254.6756,70.5395,230.6095,0,U,69263,999,380,-.22358E-3,-.44629E-3,0
STARLINK-37486,2026-117AC,2026-06-14T20:00:04.998816,15.80892449,.0000966,53.1578,254.6614,76.4053,231.6831,0,U,69264,999,380,-.16796E-3,-.33749E-3,0
STARLINK-37435,2026-117AD,2026-06-14T20:00:04.998816,15.80898069,.0000985,53.1581,254.6781,77.8542,221.7571,0,U,69265,999,380,-.24991E-3,-.49796E-3,0
STARLINK-37464,2026-117AE,2026-06-14T20:00:04.998816,15.82014371,.0001038,53.1574,254.6446,76.9670,238.5542,0,U,69266,999,380,-.24728E-3,-.51864E-3,0
KUIPER-00282,2026-118A,2026-06-14T21:03:34.982208,15.34621100,.0011589,51.8587,64.6910,171.7098,188.4081,0,U,69267,999,362,-.38068E-3,-.13357E-3,0
KUIPER-00383,2026-118B,2026-06-14T20:59:20.963616,15.34585980,.0009398,51.8592,64.6721,171.9622,188.1515,0,U,69268,999,362,.24052E-3,.7818E-4,0
KUIPER-00527,2026-118C,2026-06-14T19:19:50.366784,15.35037518,.0008591,51.8616,64.9617,165.7211,194.4019,0,U,69269,999,361,.19879E-3,.6489E-4,0
KUIPER-00562,2026-118D,2026-06-14T20:13:53.685408,15.38575276,.0001805,51.8736,64.4673,101.1106,259.0085,0,U,69270,999,362,.54711E-3,.2083E-3,0
KUIPER-00570,2026-118E,2026-06-14T20:56:25.785024,15.34985488,.0012744,51.8576,64.6573,176.3695,183.7385,0,U,69271,999,362,-.14032E-2,-.48564E-3,0
KUIPER-00572,2026-118F,2026-06-14T19:04:28.102944,15.36966220,.0007159,51.8677,64.8964,162.6296,197.4937,0,U,69272,999,361,.79092E-3,.28783E-3,0
KUIPER-00581,2026-118G,2026-06-14T19:09:18.457056,15.36592777,.0008961,51.8657,64.9175,166.3394,193.7836,0,U,69273,999,370,.62543E-3,.22394E-3,0
KUIPER-00584,2026-118H,2026-06-14T19:25:41.625120,15.34971715,.0009906,51.8606,64.9880,178.0590,182.0436,0,U,69274,999,361,-.14046E-2,-.48535E-3,0
KUIPER-00587,2026-118J,2026-06-14T19:08:28.732992,15.36640961,.0008362,51.8630,64.9119,169.7751,190.3407,0,U,69275,999,361,.72429E-3,.26045E-3,0
KUIPER-00590,2026-118K,2026-06-14T18:51:20.427840,15.37870372,.0003977,51.8699,64.8385,149.7283,210.3934,0,U,69276,999,361,.62062E-3,.23148E-3,0
KUIPER-00592,2026-118L,2026-06-14T20:21:40.700736,15.38068385,.0003565,51.8723,64.5085,124.9251,235.2071,0,U,69277,999,362,-.18326E-3,-.7364E-4,0
KUIPER-00593,2026-118M,2026-06-14T20:22:37.132896,15.37996297,.0003887,51.8725,64.5117,145.8963,214.2274,0,U,69278,999,368,.40458E-3,.14999E-3,0
KUIPER-00594,2026-118N,2026-06-14T20:12:17.324352,15.38614257,.0001112,51.8728,64.4641,71.7499,288.3609,0,U,69279,999,362,.68984E-3,.26421E-3,0
KUIPER-00595,2026-118P,2026-06-14T20:15:13.067136,15.38509778,.0001662,51.8728,64.4793,123.7861,236.3285,0,U,69280,999,365,.5308E-3,.20151E-3,0
KUIPER-00596,2026-118Q,2026-06-14T20:57:29.475648,15.34725272,.001292,51.8554,64.6588,175.0901,185.0213,0,U,69281,999,362,-.11137E-3,-.4202E-4,0
KUIPER-00597,2026-118R,2026-06-14T19:02:06.394848,15.36979771,.0006935,51.8660,64.8863,163.2728,196.8489,0,U,69282,999,361,.65946E-3,.23927E-3,0
KUIPER-00599,2026-118S,2026-06-14T18:58:43.252032,15.37342808,.0006188,51.8698,64.8711,155.5147,204.6134,0,U,69283,999,361,.66713E-3,.24498E-3,0
KUIPER-00600,2026-118T,2026-06-14T19:07:31.125792,15.36690796,.0008959,51.8646,64.9089,165.8507,194.2732,0,U,69284,999,361,.81186E-3,.29306E-3,0
KUIPER-00601,2026-118U,2026-06-14T18:54:21.795264,15.37612766,.0004465,51.8716,64.8514,145.0383,215.0898,0,U,69285,999,361,.61719E-3,.22825E-3,0
KUIPER-00602,2026-118V,2026-06-14T20:20:37.819680,15.38129067,.0002987,51.8713,64.5038,137.7236,222.3982,0,U,69286,999,362,.36442E-3,.13527E-3,0
