STARLINK-37508          
1 69257U 26117V   26165.87050479  .00237078  00000+0  11682-2 0  9992
2 69257  53.1584 254.8060 0001708  45.2171 314.8990 15.80943549  2619
STARLINK-37276          
1 69258U 26117W   26165.83339119 -.00052489  00000+0 -26366-3 0  9999
2 69258  53.1582 254.6740 0001221  57.9238 244.3232 15.80900947  3785
STARLINK-37518          
1 69259U 26117X   26165.83339119 -.00010845  00000+0 -51440-4 0  9992
2 69259  53.1582 254.6892 0001241 106.0186 189.2295 15.80884694  3803
STARLINK-37478          
1 69260U 26117Y   26165.83339119 -.00050921  00000+0 -25561-3 0  9997
2 69260  53.1585 254.6922 0000928  85.8143 208.1502 15.80903201  3808
STARLINK-37506          
1 69261U 26117Z   26165.83339119 -.00067915  00000+0 -34267-3 0  9992
2 69261  53.1580 254.6859 0000968  68.9182 227.8306 15.80909944  3802
STARLINK-37503          
1 69262U 26117AA  26165.83339119 -.00017959  00000+0 -87581-4 0  9994
2 69262  53.1584 254.6822 0001112 110.7031 187.5119 15.80885823  3801
STARLINK-37502          
1 69263U 26117AB  26165.83339119 -.00044629  00000+0 -22358-3 0  9999
2 69263  53.1583 254.6756 0001060  70.5395 230.6095 15.80887436  3800
STARLINK-37486          
1 69264U 26117AC  26165.83339119 -.00033749  00000+0 -16796-3 0  9990
2 69264  53.1578 254.6614 0000966  76.4053 231.6831 15.80892449  3807
STARLINK-37435          
1 69265U 26117AD  26165.83339119 -.00049796  00000+0 -24991-3 0  9996
2 69265  53.1581 254.6781 0000985  77.8542 221.7571 15.80898069  3801
STARLINK-37464          
1 69266U 26117AE  26165.83339119 -.00051864  00000+0 -24728-3 0  9994
2 69266  53.1574 254.6446 0001038  76.9670 238.5542 15.82014371  3806
KUIPER-00282            
1 69267U 26118A   26165.87748822 -.00013357  00000+0 -38068-3 0  9992
2 69267  51.8587  64.6910 0011589 171.7098 188.4081 15.34621100  3623
KUIPER-00383            
1 69268U 26118B   26165.87454819  .00007818  00000+0  24052-3 0  9994
2 69268  51.8592  64.6721 0009398 171.9622 188.1515 15.34585980  3624
KUIPER-00527            
1 69269U 26118C   26165.80544406  .00006489  00000+0  19879-3 0  9994
2 69269  51.8616  64.9617 0008591 165.7211 194.4019 15.35037518  3616
KUIPER-00562            
1 69270U 26118D   26165.84298247  .00020830  00000+0  54711-3 0  9999
2 69270  51.8736  64.4673 0001805 101.1106 259.0085 15.38575276  3629
KUIPER-00570            
1 69271U 26118E   26165.87252066 -.00048564  00000+0 -14032-2 0  9999
2 69271  51.8576  64.6573 0012744 176.3695 183.7385 15.34985488  3626
KUIPER-00572            
1 69272U 26118F   26165.79476971  .00028783  00000+0  79092-3 0  9991
2 69272  51.8677  64.8964 0007159 162.6296 197.4937 15.36966220  3613
KUIPER-00581            
1 69273U 26118G   26165.79813029  .00022394  00000+0  62543-3 0  9996
2 69273  51.8657  64.9175 0008961 166.3394 193.7836 15.36592777  3708
KUIPER-00584            
1 69274U 26118H   26165.80950955 -.00048535  00000+0 -14046-2 0  9990
2 69274  51.8606  64.9880 0009906 178.0590 182.0436 15.34971715  3612
KUIPER-00587            
1 69275U 26118J   26165.79755478  .00026045  00000+0  72429-3 0  9992
2 69275  51.8630  64.9119 0008362 169.7751 190.3407 15.36640961  3614
KUIPER-00590            
1 69276U 26118K   26165.78565310  .00023148  00000+0  62062-3 0  9999
2 69276  51.8699  64.8385 0003977 149.7283 210.3934 15.37870372  3619
KUIPER-00592            
1 69277U 26118L   26165.84838774 -.00007364  00000+0 -18326-3 0  9992
2 69277  51.8723  64.5085 0003565 124.9251 235.2071 15.38068385  3628
KUIPER-00593            
1 69278U 26118M   26165.84904089  .00014999  00000+0  40458-3 0  9997
2 69278  51.8725  64.5117 0003887 145.8963 214.2274 15.37996297  3685
KUIPER-00594            
1 69279U 26118N   26165.84186718  .00026421  00000+0  68984-3 0  9996
2 69279  51.8728  64.4641 0001112  71.7499 288.3609 15.38614257  3622
KUIPER-00595            
1 69280U 26118P   26165.84390124  .00020151  00000+0  53080-3 0  9991
2 69280  51.8728  64.4793 0001662 123.7861 236.3285 15.38509778  3650
KUIPER-00596            
1 69281U 26118Q   26165.87325782 -.00004202  00000+0 -11137-3 0  9991
2 69281  51.8554  64.6588 0012920 175.0901 185.0213 15.34725272  3629
KUIPER-00597            
1 69282U 26118R   26165.79312957  .00023927  00000+0  65946-3 0  9993
2 69282  51.8660  64.8863 0006935 163.2728 196.8489 15.36979771  3612
KUIPER-00599            
1 69283U 26118S   26165.79077838  .00024498  00000+0  66713-3 0  9997
2 69283  51.8698  64.8711 0006188 155.5147 204.6134 15.37342808  3616
KUIPER-00600            
1 69284U 26118T   26165.79688803  .00029306  00000+0  81186-3 0  9992
2 69284  51.8646  64.9089 0008959 165.8507 194.2732 15.36690796  3610
KUIPER-00601            
1 69285U 26118U   26165.78775226  .00022825  00000+0  61719-3 0  9997
2 69285  51.8716  64.8514 0004465 145.0383 215.0898 15.37612766  3618
KUIPER-00602            
1 69286U 26118V   26165.84765995  .00013527  00000+0  36442-3 0  9991
2 69286  51.8713  64.5038 0002987 137.7236 222.3982 15.38129067  3620
